<xml>
<item>
<COMMENT>GENERATED VIA SPACETRACK.ORG API</COMMENT>
<ORIGINATOR>18 SPCS</ORIGINATOR>
<NORAD_CAT_ID>56474</NORAD_CAT_ID>
<OBJECT_NAME>STARLINK-5524</OBJECT_NAME>
<OBJECT_TYPE>PAYLOAD</OBJECT_TYPE>
<CLASSIFICATION_TYPE>U</CLASSIFICATION_TYPE>
<INTLDES>23064AC</INTLDES>
<EPOCH>2023-10-12 02:50:27</EPOCH>
<EPOCH_MICROSECONDS>98880</EPOCH_MICROSECONDS>
<MEAN_MOTION>14.98743376</MEAN_MOTION>
<ECCENTRICITY>0.0003019</ECCENTRICITY>
<INCLINATION>70</INCLINATION>
<RA_OF_ASC_NODE>182.3441</RA_OF_ASC_NODE>
<ARG_OF_PERICENTER>269.7753</ARG_OF_PERICENTER>
<MEAN_ANOMALY>90.306</MEAN_ANOMALY>
<EPHEMERIS_TYPE>0</EPHEMERIS_TYPE>
<ELEMENT_SET_NO>999</ELEMENT_SET_NO>
<REV_AT_EPOCH>2434</REV_AT_EPOCH>
<BSTAR>-0.0053549</BSTAR>
<MEAN_MOTION_DOT>-0.00064089</MEAN_MOTION_DOT>
<MEAN_MOTION_DDOT>0</MEAN_MOTION_DDOT>
<FILE>4031648</FILE>
<TLE_LINE0>0 STARLINK-5524</TLE_LINE0>
<TLE_LINE1>1 56474U 23064AC 23285.11836920 -.00064089 00000-0 -53549-2 0 9998</TLE_LINE1>
<TLE_LINE2>2 56474 70.0000 182.3441 0003019 269.7753 90.3060 14.98743376 24343</TLE_LINE2>
<OBJECT_ID>2023-064AC</OBJECT_ID>
<OBJECT_NUMBER>56474</OBJECT_NUMBER>
<SEMIMAJOR_AXIS>6948.915</SEMIMAJOR_AXIS>
<PERIOD>96.080</PERIOD>
<APOGEE>572.878</APOGEE>
<PERIGEE>568.682</PERIGEE>
<DECAYED>0</DECAYED>
</item>
<item>
<COMMENT>GENERATED VIA SPACETRACK.ORG API</COMMENT>
<ORIGINATOR>18 SPCS</ORIGINATOR>
<NORAD_CAT_ID>56481</NORAD_CAT_ID>
<OBJECT_NAME>STARLINK-6222</OBJECT_NAME>
<OBJECT_TYPE>PAYLOAD</OBJECT_TYPE>
<CLASSIFICATION_TYPE>U</CLASSIFICATION_TYPE>
<INTLDES>23064AK</INTLDES>
<EPOCH>2023-10-12 03:20:05</EPOCH>
<EPOCH_MICROSECONDS>187552</EPOCH_MICROSECONDS>
<MEAN_MOTION>14.98335319</MEAN_MOTION>
<ECCENTRICITY>0.0002722</ECCENTRICITY>
<INCLINATION>70</INCLINATION>
<RA_OF_ASC_NODE>182.0123</RA_OF_ASC_NODE>
<ARG_OF_PERICENTER>268.5736</ARG_OF_PERICENTER>
<MEAN_ANOMALY>91.5111</MEAN_ANOMALY>
<EPHEMERIS_TYPE>0</EPHEMERIS_TYPE>
<ELEMENT_SET_NO>999</ELEMENT_SET_NO>
<REV_AT_EPOCH>2435</REV_AT_EPOCH>
<BSTAR>-0.000036301</BSTAR>
<MEAN_MOTION_DOT>-0.00000526</MEAN_MOTION_DOT>
<MEAN_MOTION_DDOT>0</MEAN_MOTION_DDOT>
<FILE>4031595</FILE>
<TLE_LINE0>0 STARLINK-6222</TLE_LINE0>
<TLE_LINE1>1 56481U 23064AK 23285.13894893 -.00000526 00000-0 -36301-4 0 9996</TLE_LINE1>
<TLE_LINE2>2 56481 70.0000 182.0123 0002722 268.5736 91.5111 14.98335319 24358</TLE_LINE2>
<OBJECT_ID>2023-064AK</OBJECT_ID>
<OBJECT_NUMBER>56481</OBJECT_NUMBER>
<SEMIMAJOR_AXIS>6950.176</SEMIMAJOR_AXIS>
<PERIOD>96.107</PERIOD>
<APOGEE>573.933</APOGEE>
<PERIGEE>570.150</PERIGEE>
<DECAYED>0</DECAYED>
</item>
<item>
<COMMENT>GENERATED VIA SPACETRACK.ORG API</COMMENT>
<ORIGINATOR>18 SPCS</ORIGINATOR>
<NORAD_CAT_ID>56481</NORAD_CAT_ID>
<OBJECT_NAME>STARLINK-6222</OBJECT_NAME>
<OBJECT_TYPE>PAYLOAD</OBJECT_TYPE>
<CLASSIFICATION_TYPE>U</CLASSIFICATION_TYPE>
<INTLDES>23064AK</INTLDES>
<EPOCH>2023-10-12 03:20:05</EPOCH>
<EPOCH_MICROSECONDS>187552</EPOCH_MICROSECONDS>
<MEAN_MOTION>14.98335319</MEAN_MOTION>
<ECCENTRICITY>0.0002722</ECCENTRICITY>
<INCLINATION>70</INCLINATION>
<RA_OF_ASC_NODE>182.0123</RA_OF_ASC_NODE>
<ARG_OF_PERICENTER>268.5736</ARG_OF_PERICENTER>
<MEAN_ANOMALY>91.5111</MEAN_ANOMALY>
<EPHEMERIS_TYPE>0</EPHEMERIS_TYPE>
<ELEMENT_SET_NO>999</ELEMENT_SET_NO>
<REV_AT_EPOCH>2399</REV_AT_EPOCH>
<BSTAR>-0.000036301</BSTAR>
<MEAN_MOTION_DOT>-0.00000526</MEAN_MOTION_DOT>
<MEAN_MOTION_DDOT>0</MEAN_MOTION_DDOT>
<FILE>4031907</FILE>
<TLE_LINE0>0 STARLINK-6222</TLE_LINE0>
<TLE_LINE1>1 56481U 23064AK 23285.13894893 -.00000526 00000-0 -36301-4 0 9996</TLE_LINE1>
<TLE_LINE2>2 56481 70.0000 182.0123 0002722 268.5736 91.5111 14.98335319 23997</TLE_LINE2>
<OBJECT_ID>2023-064AK</OBJECT_ID>
<OBJECT_NUMBER>56481</OBJECT_NUMBER>
<SEMIMAJOR_AXIS>6950.176</SEMIMAJOR_AXIS>
<PERIOD>96.107</PERIOD>
<APOGEE>573.933</APOGEE>
<PERIGEE>570.150</PERIGEE>
<DECAYED>0</DECAYED>
</item>
<item>
<COMMENT>GENERATED VIA SPACETRACK.ORG API</COMMENT>
<ORIGINATOR>18 SPCS</ORIGINATOR>
<NORAD_CAT_ID>49146</NORAD_CAT_ID>
<OBJECT_NAME>STARLINK-3116</OBJECT_NAME>
<OBJECT_TYPE>PAYLOAD</OBJECT_TYPE>
<CLASSIFICATION_TYPE>U</CLASSIFICATION_TYPE>
<INTLDES>21082S</INTLDES>
<EPOCH>2023-10-12 04:13:39</EPOCH>
<EPOCH_MICROSECONDS>654624</EPOCH_MICROSECONDS>
<MEAN_MOTION>14.98342624</MEAN_MOTION>
<ECCENTRICITY>0.0002514</ECCENTRICITY>
<INCLINATION>70</INCLINATION>
<RA_OF_ASC_NODE>332.0288</RA_OF_ASC_NODE>
<ARG_OF_PERICENTER>265.5254</ARG_OF_PERICENTER>
<MEAN_ANOMALY>94.5618</MEAN_ANOMALY>
<EPHEMERIS_TYPE>0</EPHEMERIS_TYPE>
<ELEMENT_SET_NO>999</ELEMENT_SET_NO>
<REV_AT_EPOCH>11589</REV_AT_EPOCH>
<BSTAR>-0.0001209</BSTAR>
<MEAN_MOTION_DOT>-0.00001536</MEAN_MOTION_DOT>
<MEAN_MOTION_DDOT>0</MEAN_MOTION_DDOT>
<FILE>4031509</FILE>
<TLE_LINE0>0 STARLINK-3116</TLE_LINE0>
<TLE_LINE1>1 49146U 21082S 23285.17615341 -.00001536 00000-0 -12090-3 0 9997</TLE_LINE1>
<TLE_LINE2>2 49146 70.0000 332.0288 0002514 265.5254 94.5618 14.98342624115890</TLE_LINE2>
<OBJECT_ID>2021-082S</OBJECT_ID>
<OBJECT_NUMBER>49146</OBJECT_NUMBER>
<SEMIMAJOR_AXIS>6950.154</SEMIMAJOR_AXIS>
<PERIOD>96.106</PERIOD>
<APOGEE>573.766</APOGEE>
<PERIGEE>570.272</PERIGEE>
<DECAYED>0</DECAYED>
</item>
<item>
<COMMENT>GENERATED VIA SPACETRACK.ORG API</COMMENT>
<ORIGINATOR>18 SPCS</ORIGINATOR>
<NORAD_CAT_ID>55779</NORAD_CAT_ID>
<OBJECT_NAME>STARLINK-5817</OBJECT_NAME>
<OBJECT_TYPE>PAYLOAD</OBJECT_TYPE>
<CLASSIFICATION_TYPE>U</CLASSIFICATION_TYPE>
<INTLDES>23028AQ</INTLDES>
<EPOCH>2023-10-12 05:03:32</EPOCH>
<EPOCH_MICROSECONDS>754528</EPOCH_MICROSECONDS>
<MEAN_MOTION>14.98327581</MEAN_MOTION>
<ECCENTRICITY>0.0002904</ECCENTRICITY>
<INCLINATION>70</INCLINATION>
<RA_OF_ASC_NODE>261.7318</RA_OF_ASC_NODE>
<ARG_OF_PERICENTER>266.5311</ARG_OF_PERICENTER>
<MEAN_ANOMALY>93.5516</MEAN_ANOMALY>
<EPHEMERIS_TYPE>0</EPHEMERIS_TYPE>
<ELEMENT_SET_NO>999</ELEMENT_SET_NO>
<REV_AT_EPOCH>3529</REV_AT_EPOCH>
<BSTAR>0.000079168</BSTAR>
<MEAN_MOTION_DOT>0.00000852</MEAN_MOTION_DOT>
<MEAN_MOTION_DDOT>0</MEAN_MOTION_DDOT>
<FILE>4031467</FILE>
<TLE_LINE0>0 STARLINK-5817</TLE_LINE0>
<TLE_LINE1>1 55779U 23028AQ 23285.21079577 .00000852 00000-0 79168-4 0 9996</TLE_LINE1>
<TLE_LINE2>2 55779 70.0000 261.7318 0002904 266.5311 93.5516 14.98327581 35295</TLE_LINE2>
<OBJECT_ID>2023-028AQ</OBJECT_ID>
<OBJECT_NUMBER>55779</OBJECT_NUMBER>
<SEMIMAJOR_AXIS>6950.200</SEMIMAJOR_AXIS>
<PERIOD>96.107</PERIOD>
<APOGEE>574.084</APOGEE>
<PERIGEE>570.047</PERIGEE>
<DECAYED>0</DECAYED>
</item>
<item>
<COMMENT>GENERATED VIA SPACETRACK.ORG API</COMMENT>
<ORIGINATOR>18 SPCS</ORIGINATOR>
<NORAD_CAT_ID>55773</NORAD_CAT_ID>
<OBJECT_NAME>STARLINK-5833</OBJECT_NAME>
<OBJECT_TYPE>PAYLOAD</OBJECT_TYPE>
<CLASSIFICATION_TYPE>U</CLASSIFICATION_TYPE>
<INTLDES>23028AJ</INTLDES>
<EPOCH>2023-10-12 09:28:30</EPOCH>
<EPOCH_MICROSECONDS>793440</EPOCH_MICROSECONDS>
<MEAN_MOTION>14.98325803</MEAN_MOTION>
<ECCENTRICITY>0.0002391</ECCENTRICITY>
<INCLINATION>70</INCLINATION>
<RA_OF_ASC_NODE>281.4514</RA_OF_ASC_NODE>
<ARG_OF_PERICENTER>257.8639</ARG_OF_PERICENTER>
<MEAN_ANOMALY>102.2253</MEAN_ANOMALY>
<EPHEMERIS_TYPE>0</EPHEMERIS_TYPE>
<ELEMENT_SET_NO>999</ELEMENT_SET_NO>
<REV_AT_EPOCH>3482</REV_AT_EPOCH>
<BSTAR>-0.000003812</BSTAR>
<MEAN_MOTION_DOT>-0.00000138</MEAN_MOTION_DOT>
<MEAN_MOTION_DDOT>0</MEAN_MOTION_DDOT>
<FILE>4031907</FILE>
<TLE_LINE0>0 STARLINK-5833</TLE_LINE0>
<TLE_LINE1>1 55773U 23028AJ 23285.39480085 -.00000138 00000-0 -38120-5 0 9992</TLE_LINE1>
<TLE_LINE2>2 55773 70.0000 281.4514 0002391 257.8639 102.2253 14.98325803 34821</TLE_LINE2>
<OBJECT_ID>2023-028AJ</OBJECT_ID>
<OBJECT_NUMBER>55773</OBJECT_NUMBER>
<SEMIMAJOR_AXIS>6950.206</SEMIMAJOR_AXIS>
<PERIOD>96.107</PERIOD>
<APOGEE>573.733</APOGEE>
<PERIGEE>570.409</PERIGEE>
<DECAYED>0</DECAYED>
</item>
<item>
<COMMENT>GENERATED VIA SPACETRACK.ORG API</COMMENT>
<ORIGINATOR>18 SPCS</ORIGINATOR>
<NORAD_CAT_ID>56477</NORAD_CAT_ID>
<OBJECT_NAME>STARLINK-5534</OBJECT_NAME>
<OBJECT_TYPE>PAYLOAD</OBJECT_TYPE>
<CLASSIFICATION_TYPE>U</CLASSIFICATION_TYPE>
<INTLDES>23064AF</INTLDES>
<EPOCH>2023-10-12 09:56:38</EPOCH>
<EPOCH_MICROSECONDS>280480</EPOCH_MICROSECONDS>
<MEAN_MOTION>14.98336418</MEAN_MOTION>
<ECCENTRICITY>0.0002655</ECCENTRICITY>
<INCLINATION>70</INCLINATION>
<RA_OF_ASC_NODE>181.3686</RA_OF_ASC_NODE>
<ARG_OF_PERICENTER>271.089</ARG_OF_PERICENTER>
<MEAN_ANOMALY>88.9965</MEAN_ANOMALY>
<EPHEMERIS_TYPE>0</EPHEMERIS_TYPE>
<ELEMENT_SET_NO>999</ELEMENT_SET_NO>
<REV_AT_EPOCH>2403</REV_AT_EPOCH>
<BSTAR>-0.00012531</BSTAR>
<MEAN_MOTION_DOT>-0.00001588</MEAN_MOTION_DOT>
<MEAN_MOTION_DDOT>0</MEAN_MOTION_DDOT>
<FILE>4031907</FILE>
<TLE_LINE0>0 STARLINK-5534</TLE_LINE0>
<TLE_LINE1>1 56477U 23064AF 23285.41433195 -.00001588 00000-0 -12531-3 0 9993</TLE_LINE1>
<TLE_LINE2>2 56477 70.0000 181.3686 0002655 271.0890 88.9965 14.98336418 24037</TLE_LINE2>
<OBJECT_ID>2023-064AF</OBJECT_ID>
<OBJECT_NUMBER>56477</OBJECT_NUMBER>
<SEMIMAJOR_AXIS>6950.173</SEMIMAJOR_AXIS>
<PERIOD>96.107</PERIOD>
<APOGEE>573.883</APOGEE>
<PERIGEE>570.193</PERIGEE>
<DECAYED>0</DECAYED>
</item>

</xml>
